{"fetched_at":"2026-07-17T17:37:56.755Z","source":"https://celestrak.org/NORAD/elements/gp.php?GROUP=qianfan&FORMAT=JSON","constellation":"qianfan","records":[{"OBJECT_NAME":"QIANFAN-193","OBJECT_ID":"2026-125L","EPOCH":"2026-07-17T00:29:46.654368","CLASSIFICATION_TYPE":"U","MEAN_MOTION":13.92667359,"ECCENTRICITY":0.00211912,"INCLINATION":88.9944,"RA_OF_ASC_NODE":277.0748,"ARG_OF_PERICENTER":76.0581,"MEAN_ANOMALY":284.2949,"EPHEMERIS_TYPE":0,"NORAD_CAT_ID":69411,"ELEMENT_SET_NO":999,"REV_AT_EPOCH":592,"BSTAR":-1.7505549,"MEAN_MOTION_DOT":-0.02101171,"MEAN_MOTION_DDOT":0},{"OBJECT_NAME":"QIANFAN-194","OBJECT_ID":"2026-125M","EPOCH":"2026-07-17T05:34:19.899264","CLASSIFICATION_TYPE":"U","MEAN_MOTION":13.96422367,"ECCENTRICITY":0.00186048,"INCLINATION":88.9948,"RA_OF_ASC_NODE":277.0496,"ARG_OF_PERICENTER":76.1681,"MEAN_ANOMALY":284.1564,"EPHEMERIS_TYPE":0,"NORAD_CAT_ID":69412,"ELEMENT_SET_NO":999,"REV_AT_EPOCH":594,"BSTAR":-0.000044019717,"MEAN_MOTION_DOT":-4.7e-7,"MEAN_MOTION_DDOT":0},{"OBJECT_NAME":"QIANFAN-195","OBJECT_ID":"2026-125N","EPOCH":"2026-07-17T06:30:23.956704","CLASSIFICATION_TYPE":"U","MEAN_MOTION":13.97297247,"ECCENTRICITY":0.00203388,"INCLINATION":88.9948,"RA_OF_ASC_NODE":277.0379,"ARG_OF_PERICENTER":77.3503,"MEAN_ANOMALY":282.9947,"EPHEMERIS_TYPE":0,"NORAD_CAT_ID":69413,"ELEMENT_SET_NO":999,"REV_AT_EPOCH":596,"BSTAR":0.000017780119,"MEAN_MOTION_DOT":3.9e-7,"MEAN_MOTION_DDOT":0},{"OBJECT_NAME":"QIANFAN-196","OBJECT_ID":"2026-125P","EPOCH":"2026-07-17T04:50:48.171552","CLASSIFICATION_TYPE":"U","MEAN_MOTION":13.96163144,"ECCENTRICITY":0.00210398,"INCLINATION":88.9931,"RA_OF_ASC_NODE":277.044,"ARG_OF_PERICENTER":77.0737,"MEAN_ANOMALY":283.2788,"EPHEMERIS_TYPE":0,"NORAD_CAT_ID":69414,"ELEMENT_SET_NO":999,"REV_AT_EPOCH":595,"BSTAR":0.000020001296,"MEAN_MOTION_DOT":4.1e-7,"MEAN_MOTION_DDOT":0},{"OBJECT_NAME":"QIANFAN-197","OBJECT_ID":"2026-125Q","EPOCH":"2026-07-17T06:23:31.571232","CLASSIFICATION_TYPE":"U","MEAN_MOTION":13.98942615,"ECCENTRICITY":0.00185803,"INCLINATION":88.9947,"RA_OF_ASC_NODE":277.0367,"ARG_OF_PERICENTER":73.7282,"MEAN_ANOMALY":286.5939,"EPHEMERIS_TYPE":0,"NORAD_CAT_ID":69415,"ELEMENT_SET_NO":999,"REV_AT_EPOCH":595,"BSTAR":0.000055741771,"MEAN_MOTION_DOT":9.4e-7,"MEAN_MOTION_DDOT":0},{"OBJECT_NAME":"QIANFAN-198","OBJECT_ID":"2026-125R","EPOCH":"2026-07-17T04:55:09.444288","CLASSIFICATION_TYPE":"U","MEAN_MOTION":13.97169851,"ECCENTRICITY":0.00192103,"INCLINATION":88.9939,"RA_OF_ASC_NODE":277.0467,"ARG_OF_PERICENTER":76.341,"MEAN_ANOMALY":283.9905,"EPHEMERIS_TYPE":0,"NORAD_CAT_ID":69416,"ELEMENT_SET_NO":999,"REV_AT_EPOCH":595,"BSTAR":0.000029853592,"MEAN_MOTION_DOT":5.6e-7,"MEAN_MOTION_DDOT":0},{"OBJECT_NAME":"QIANFAN-199","OBJECT_ID":"2026-125S","EPOCH":"2026-07-17T01:54:24.280416","CLASSIFICATION_TYPE":"U","MEAN_MOTION":14.03349015,"ECCENTRICITY":0.00200082,"INCLINATION":88.995,"RA_OF_ASC_NODE":277.0464,"ARG_OF_PERICENTER":73.2591,"MEAN_ANOMALY":287.0783,"EPHEMERIS_TYPE":0,"NORAD_CAT_ID":69417,"ELEMENT_SET_NO":999,"REV_AT_EPOCH":594,"BSTAR":0.000072570716,"MEAN_MOTION_DOT":0.00000127,"MEAN_MOTION_DDOT":0},{"OBJECT_NAME":"QIANFAN-200","OBJECT_ID":"2026-125T","EPOCH":"2026-07-17T06:17:32.938656","CLASSIFICATION_TYPE":"U","MEAN_MOTION":13.9310774,"ECCENTRICITY":0.00196673,"INCLINATION":88.9951,"RA_OF_ASC_NODE":277.054,"ARG_OF_PERICENTER":72.2729,"MEAN_ANOMALY":288.0591,"EPHEMERIS_TYPE":0,"NORAD_CAT_ID":69418,"ELEMENT_SET_NO":999,"REV_AT_EPOCH":595,"BSTAR":0.00002245336,"MEAN_MOTION_DOT":4.3e-7,"MEAN_MOTION_DDOT":0},{"OBJECT_NAME":"QIANFAN-201","OBJECT_ID":"2026-153A","EPOCH":"2026-07-17T04:59:51.199872","CLASSIFICATION_TYPE":"U","MEAN_MOTION":14.26541774,"ECCENTRICITY":0.00083046,"INCLINATION":88.9924,"RA_OF_ASC_NODE":358.8153,"ARG_OF_PERICENTER":175.8712,"MEAN_ANOMALY":184.2552,"EPHEMERIS_TYPE":0,"NORAD_CAT_ID":69800,"ELEMENT_SET_NO":999,"REV_AT_EPOCH":183,"BSTAR":0.000076141804,"MEAN_MOTION_DOT":0.00000198,"MEAN_MOTION_DDOT":0},{"OBJECT_NAME":"QIANFAN-202","OBJECT_ID":"2026-153B","EPOCH":"2026-07-17T07:09:04.975200","CLASSIFICATION_TYPE":"U","MEAN_MOTION":14.1884339,"ECCENTRICITY":0.00068801,"INCLINATION":88.9925,"RA_OF_ASC_NODE":358.8102,"ARG_OF_PERICENTER":167.9325,"MEAN_ANOMALY":192.2031,"EPHEMERIS_TYPE":0,"NORAD_CAT_ID":69801,"ELEMENT_SET_NO":999,"REV_AT_EPOCH":184,"BSTAR":0.000014282442,"MEAN_MOTION_DOT":4.4e-7,"MEAN_MOTION_DDOT":0},{"OBJECT_NAME":"QIANFAN-203","OBJECT_ID":"2026-153C","EPOCH":"2026-07-17T07:01:12.778464","CLASSIFICATION_TYPE":"U","MEAN_MOTION":14.22390853,"ECCENTRICITY":0.00075198,"INCLINATION":88.9924,"RA_OF_ASC_NODE":358.8093,"ARG_OF_PERICENTER":177.0467,"MEAN_ANOMALY":183.0771,"EPHEMERIS_TYPE":0,"NORAD_CAT_ID":69802,"ELEMENT_SET_NO":999,"REV_AT_EPOCH":184,"BSTAR":0.000019059219,"MEAN_MOTION_DOT":5.7e-7,"MEAN_MOTION_DDOT":0},{"OBJECT_NAME":"QIANFAN-204","OBJECT_ID":"2026-153D","EPOCH":"2026-07-17T07:04:20.661312","CLASSIFICATION_TYPE":"U","MEAN_MOTION":14.20114251,"ECCENTRICITY":0.00078459,"INCLINATION":88.9925,"RA_OF_ASC_NODE":358.8096,"ARG_OF_PERICENTER":171.6175,"MEAN_ANOMALY":188.5147,"EPHEMERIS_TYPE":0,"NORAD_CAT_ID":69803,"ELEMENT_SET_NO":999,"REV_AT_EPOCH":184,"BSTAR":0.000014034064,"MEAN_MOTION_DOT":4.4e-7,"MEAN_MOTION_DDOT":0},{"OBJECT_NAME":"QIANFAN-205","OBJECT_ID":"2026-153E","EPOCH":"2026-07-17T07:03:10.380960","CLASSIFICATION_TYPE":"U","MEAN_MOTION":14.22264634,"ECCENTRICITY":0.00077258,"INCLINATION":88.9923,"RA_OF_ASC_NODE":358.8093,"ARG_OF_PERICENTER":175.5781,"MEAN_ANOMALY":184.548,"EPHEMERIS_TYPE":0,"NORAD_CAT_ID":69804,"ELEMENT_SET_NO":999,"REV_AT_EPOCH":184,"BSTAR":0.000039792686,"MEAN_MOTION_DOT":0.00000103,"MEAN_MOTION_DDOT":0},{"OBJECT_NAME":"QIANFAN-206","OBJECT_ID":"2026-153F","EPOCH":"2026-07-17T06:50:34.107936","CLASSIFICATION_TYPE":"U","MEAN_MOTION":14.24034582,"ECCENTRICITY":0.00082103,"INCLINATION":88.9924,"RA_OF_ASC_NODE":358.8081,"ARG_OF_PERICENTER":176.2872,"MEAN_ANOMALY":183.8383,"EPHEMERIS_TYPE":0,"NORAD_CAT_ID":69805,"ELEMENT_SET_NO":999,"REV_AT_EPOCH":184,"BSTAR":0.000014141765,"MEAN_MOTION_DOT":4.7e-7,"MEAN_MOTION_DDOT":0},{"OBJECT_NAME":"QIANFAN-207","OBJECT_ID":"2026-153G","EPOCH":"2026-07-17T06:48:19.842336","CLASSIFICATION_TYPE":"U","MEAN_MOTION":14.24250777,"ECCENTRICITY":0.00076492,"INCLINATION":88.9924,"RA_OF_ASC_NODE":358.8079,"ARG_OF_PERICENTER":176.3035,"MEAN_ANOMALY":183.8215,"EPHEMERIS_TYPE":0,"NORAD_CAT_ID":69806,"ELEMENT_SET_NO":999,"REV_AT_EPOCH":184,"BSTAR":0.000056008719,"MEAN_MOTION_DOT":0.00000144,"MEAN_MOTION_DDOT":0},{"OBJECT_NAME":"QIANFAN-208","OBJECT_ID":"2026-153H","EPOCH":"2026-07-17T05:04:03.912096","CLASSIFICATION_TYPE":"U","MEAN_MOTION":14.25462388,"ECCENTRICITY":0.0008434,"INCLINATION":88.9924,"RA_OF_ASC_NODE":358.8156,"ARG_OF_PERICENTER":177.2881,"MEAN_ANOMALY":182.8359,"EPHEMERIS_TYPE":0,"NORAD_CAT_ID":69807,"ELEMENT_SET_NO":999,"REV_AT_EPOCH":183,"BSTAR":0.000057095928,"MEAN_MOTION_DOT":0.00000149,"MEAN_MOTION_DDOT":0}]}
