QIANFAN-193             
1 69411U 26125L   26198.02067887 -.02101171  00000+0 -17506+1 0  9994
2 69411  88.9944 277.0748 0021191  76.0581 284.2949 13.92667359  5926
QIANFAN-194             
1 69412U 26125M   26198.23217476 -.00000047  00000+0 -44020-4 0  9992
2 69412  88.9948 277.0496 0018604  76.1681 284.1564 13.96422367  5944
QIANFAN-195             
1 69413U 26125N   26198.27111061  .00000039  00000+0  17780-4 0  9992
2 69413  88.9948 277.0379 0020338  77.3503 282.9947 13.97297247  5969
QIANFAN-196             
1 69414U 26125P   26198.20194643  .00000041  00000+0  20001-4 0  9996
2 69414  88.9931 277.0440 0021039  77.0737 283.2788 13.96163144  5959
QIANFAN-197             
1 69415U 26125Q   26198.26633763  .00000094  00000+0  55742-4 0  9992
2 69415  88.9947 277.0367 0018580  73.7282 286.5939 13.98942615  5954
QIANFAN-198             
1 69416U 26125R   26198.20497042  .00000056  00000+0  29854-4 0  9998
2 69416  88.9939 277.0467 0019210  76.3410 283.9905 13.97169851  5956
QIANFAN-199             
1 69417U 26125S   26198.07944769  .00000127  00000+0  72571-4 0  9990
2 69417  88.9950 277.0464 0020008  73.2591 287.0783 14.03349015  5948
QIANFAN-200             
1 69418U 26125T   26198.26218679  .00000043  00000+0  22453-4 0  9997
2 69418  88.9951 277.0540 0019667  72.2729 288.0591 13.93107740  5950
QIANFAN-201             
1 69800U 26153A   26198.20823148  .00000198  00000+0  76142-4 0  9995
2 69800  88.9924 358.8153 0008304 175.8712 184.2552 14.26541774  1834
QIANFAN-202             
1 69801U 26153B   26198.29797425  .00000044  00000+0  14282-4 0  9990
2 69801  88.9925 358.8102 0006880 167.9325 192.2031 14.18843390  1841
QIANFAN-203             
1 69802U 26153C   26198.29250901  .00000057  00000+0  19059-4 0  9995
2 69802  88.9924 358.8093 0007519 177.0467 183.0771 14.22390853  1844
QIANFAN-204             
1 69803U 26153D   26198.29468358  .00000044  00000+0  14034-4 0  9997
2 69803  88.9925 358.8096 0007845 171.6175 188.5147 14.20114251  1848
QIANFAN-205             
1 69804U 26153E   26198.29387015  .00000103  00000+0  39793-4 0  9993
2 69804  88.9923 358.8093 0007725 175.5781 184.5480 14.22264634  1846
QIANFAN-206             
1 69805U 26153F   26198.28511699  .00000047  00000+0  14142-4 0  9998
2 69805  88.9924 358.8081 0008210 176.2872 183.8383 14.24034582  1847
QIANFAN-207             
1 69806U 26153G   26198.28356299  .00000144  00000+0  56009-4 0  9998
2 69806  88.9924 358.8079 0007649 176.3035 183.8215 14.24250777  1842
QIANFAN-208             
1 69807U 26153H   26198.21115639  .00000149  00000+0  57096-4 0  9995
2 69807  88.9924 358.8156 0008434 177.2881 182.8359 14.25462388  1832
